NORAD_CAT_ID,OBJECT_NAME,OBJECT_TYPE,EPOCH,MEAN_MOTION,ECCENTRICITY,INCLINATION,RA_OF_ASC_NODE,ARG_OF_PERICENTER,MEAN_ANOMALY,BSTAR,MEAN_MOTION_DOT,MEAN_MOTION_DDOT,TLE_LINE0,TLE_LINE1,TLE_LINE2,SEMIMAJOR_AXIS,PERIOD,APOGEE,PERIGEE,DECAYED
51885.0,STARLINK-3584,PAYLOAD,2022-09-10 22:00:00,15.08848361,0.0001505,53.2165,326.3009,62.4509,320.4127,-0.0033851,-0.00053772,0.0,0 STARLINK-3584,1 51885U 22022AK  22253.91667824 -.00053772  00000-0 -33851-2 0  9990,2 51885  53.2165 326.3009 0001505  62.4509 320.4127 15.08848361 30647,6917.855,95.437,540.761,538.679,0.0
51885.0,STARLINK-3584,PAYLOAD,2022-09-11 06:00:00,15.08832487,0.000146,53.2164,324.8045,66.2889,328.1594,0.00042875,6.541e-05,0.0,0 STARLINK-3584,1 51885U 22022AK  22254.25001157  .00006541  00000-0  42875-3 0  9996,2 51885  53.2164 324.8045 0001460  66.2889 328.1594 15.08832487 30692,6917.903,95.438,540.778,538.758,0.0
51885.0,STARLINK-3584,PAYLOAD,2022-09-11 14:00:01,15.08820262,0.0001568,53.2161,323.3097,57.8689,348.1777,0.0024956999999999,0.00039633,0.0,0 STARLINK-3584,1 51885U 22022AK  22254.58334491  .00039633  00000-0  24957-2 0  9990,2 51885  53.2161 323.3097 0001568  57.8689 348.1777 15.08820262  1302,6917.941,95.439,540.89,538.721,0.0
51885.0,STARLINK-3584,PAYLOAD,2022-09-11 22:00:00,15.08859917,0.0001426999999999,53.2158,321.8118,60.3891,357.2461,-0.0032165999999999,-0.00051144,0.0,0 STARLINK-3584,1 51885U 22022AK  22254.91667824 -.00051144  00000-0 -32166-2 0  9990,2 51885  53.2158 321.8118 0001427  60.3891 357.2461 15.08859917  1303,6917.82,95.436,540.672,538.697,0.0
51885.0,STARLINK-3584,PAYLOAD,2022-09-12 14:00:01,15.08825536,0.0001541999999999,53.2155,318.8204,54.6227,26.2015,0.001535,0.00024216,0.0,0 STARLINK-3584,1 51885U 22022AK  22255.58334491  .00024216  00000-0  15350-2 0  9999,2 51885  53.2155 318.8204 0001542  54.6227  26.2015 15.08825536 30893,6917.925,95.438,540.856,538.7230000000002,0.0
51885.0,STARLINK-3584,PAYLOAD,2022-09-12 22:00:00,15.08837234,0.0001503,53.2154,317.3223,59.8359,32.592,-0.00045478,-7.518e-05,0.0,0 STARLINK-3584,1 51885U 22022AK  22255.91667824 -.00007518  00000-0 -45478-3 0  9998,2 51885  53.2154 317.3223 0001503  59.8359  32.5920 15.08837234  1304,6917.889,95.438,540.794,538.714,0.0
51885.0,STARLINK-3584,PAYLOAD,2022-09-13 06:00:00,15.08907047,0.0001504,53.2161,315.8161,62.2744,41.7359,-0.011995,-0.00186626,0.0,0 STARLINK-3584,1 51885U 22022AK  22256.25001157 -.00186626  00000-0 -11995-1 0  9990,2 51885  53.2161 315.8161 0001504  62.2744  41.7359 15.08907047 30998,6917.675,95.433,540.581,538.5,0.0
51885.0,STARLINK-3584,PAYLOAD,2022-09-13 14:00:01,15.08741991,0.000156,53.217,314.3154,52.2724,63.343,0.0091818,0.00148539,0.0,0 STARLINK-3584,1 51885U 22022AK  22256.58334491  .00148539  00000-0  91818-2 0  9998,2 51885  53.2170 314.3154 0001560  52.2724  63.3430 15.08741991  1300,6918.18,95.444,541.124,538.966,0.0
51885.0,STARLINK-3584,PAYLOAD,2022-09-13 16:00:00,15.08817817,0.0001551999999999,53.217,313.9395,51.4622,157.0113,0.0020344,0.00032218,0.0,0 STARLINK-3584,1 51885U 22022AK  22256.66667824  .00032218  00000-0  20344-2 0  9998,2 51885  53.2170 313.9395 0001552  51.4622 157.0113 15.08817817 31056,6917.948,95.439,540.887,538.74,0.0
51885.0,STARLINK-3584,PAYLOAD,2022-09-13 22:00:00,15.08822849,0.0001475,53.2157,312.8325,56.218,70.9647,0.00077944,0.00012133,0.0,0 STARLINK-3584,1 51885U 22022AK  22256.91667824  .00012133  00000-0  77944-3 0  9999,2 51885  53.2157 312.8325 0001475  56.2180  70.9647 15.08822849  1309,6917.933000000001,95.439,540.818,538.7769999999998,0.0
51885.0,STARLINK-3584,PAYLOAD,2022-09-14 14:00:01,15.08853534,0.0001713,53.2163,309.8338,50.4991,99.857,-0.0021622,-0.00034548,0.0,0 STARLINK-3584,1 51885U 22022AK  22257.58334491 -.00034548  00000-0 -21622-2 0  9991,2 51885  53.2163 309.8338 0001713  50.4991  99.8570 15.08853534 31197,6917.839,95.437,540.889,538.519,0.0
51885.0,STARLINK-3584,PAYLOAD,2022-09-14 22:00:00,15.08819956,0.000143,53.2159,308.3431,53.2904,108.6641,0.0011795,0.00018523,0.0,0 STARLINK-3584,1 51885U 22022AK  22257.91667824  .00018523  00000-0  11795-2 0  9990,2 51885  53.2159 308.3431 0001430  53.2904 108.6641 15.08819956  1309,6917.941999999999,95.439,540.7959999999998,538.817,0.0
51885.0,STARLINK-3584,PAYLOAD,2022-09-15 06:00:00,15.08851571,0.0001508,53.2161,306.8469,55.691,117.8374,-0.00072607,-0.00011828,0.0,0 STARLINK-3584,1 51885U 22022AK  22258.25001157 -.00011828  00000-0 -72607-3 0  9992,2 51885  53.2161 306.8469 0001508  55.6910 117.8374 15.08851571 31290,6917.845,95.437,540.753,538.6669999999998,0.0
51885.0,STARLINK-3584,PAYLOAD,2022-09-15 14:00:01,15.08832426,0.0001675,53.216,305.3517,48.764,136.3731,0.0020344,0.00032231,0.0,0 STARLINK-3584,1 51885U 22022AK  22258.58334491  .00032231  00000-0  20344-2 0  9997,2 51885  53.2160 305.3517 0001675  48.7640 136.3731 15.08832426  1305,6917.904,95.438,540.927,538.61,0.0
51885.0,STARLINK-3584,PAYLOAD,2022-09-15 16:00:00,15.08861059,0.000165,53.2158,304.9773,49.1336,228.8955,-0.0016899999999999,-0.00027099,0.0,0 STARLINK-3584,1 51885U 22022AK  22258.66667824 -.00027099  00000-0 -16900-2 0  9996,2 51885  53.2158 304.9773 0001650  49.1336 228.8955 15.08861059  1300,6917.816,95.436,540.822,538.54,0.0
51885.0,STARLINK-3584,PAYLOAD,2022-09-16 03:29:27,15.08842814,0.000152,53.2167,302.8271,55.0579,305.0556,0.00010444,1.375e-05,0.0,0 STARLINK-3584,1 51885U 22022AK  22259.14545834  .00001375  00000-0  10444-3 0  9991,2 51885  53.2167 302.8271 0001520  55.0579 305.0556 15.08842814 31431,6917.871999999999,95.437,540.788,538.685,0.0
51885.0,STARLINK-3584,PAYLOAD,2022-09-16 11:26:23,15.08838553,0.0001533,53.2168,301.34,56.3694,303.7444,5.9231e-05,6.55e-06,0.0,0 STARLINK-3584,1 51885U 22022AK  22259.47666195  .00000655  00000-0  59231-4 0  9999,2 51885  53.2168 301.3400 0001533  56.3694 303.7444 15.08838553 31487,6917.885,95.438,540.81,538.689,0.0
51885.0,STARLINK-3584,PAYLOAD,2022-09-17 03:20:15,15.088317300000002,0.0001511,53.217,298.3659,60.8066,299.3077,5.0405e-06,-2.08e-06,0.0,0 STARLINK-3584,1 51885U 22022AK  22260.13906899 -.00000208  00000-0  50405-5 0  9992,2 51885  53.2170 298.3659 0001511  60.8066 299.3077 15.08831730 31583,6917.906,95.438,540.816,538.725,0.0
51885.0,STARLINK-3584,PAYLOAD,2022-09-17 11:17:11,15.08832185,0.0001569,53.217,296.8802,55.7963,304.3177,-6.1386e-06,-3.86e-06,0.0,0 STARLINK-3584,1 51885U 22022AK  22260.47027056 -.00000386  00000-0 -61386-5 0  9996,2 51885  53.2170 296.8802 0001569  55.7963 304.3177 15.08832185 31637,6917.904,95.438,540.855,538.684,0.0
51885.0,STARLINK-3584,PAYLOAD,2022-09-17 19:14:06,15.08836216,0.0001588,53.2169,295.3934,56.5057,303.6087,7.6389e-06,-1.66e-06,0.0,0 STARLINK-3584,1 51885U 22022AK  22260.80146863 -.00000166  00000-0  76389-5 0  9995,2 51885  53.2169 295.3934 0001588  56.5057 303.6087 15.08836216 31685,6917.892,95.438,540.856,538.658,0.0
51885.0,STARLINK-3584,PAYLOAD,2022-09-18 11:07:57,15.08840488,0.0001646,53.2169,292.4193,55.6114,304.5034,9.8241e-05,1.276e-05,0.0,0 STARLINK-3584,1 51885U 22022AK  22261.46386434  .00001276  00000-0  98241-4 0  9990,2 51885  53.2169 292.4193 0001646  55.6114 304.5034 15.08840488 31788,6917.879,95.438,540.883,538.605,0.0
51885.0,STARLINK-3584,PAYLOAD,2022-09-19 10:58:45,15.08837255,0.0001696,53.2168,287.9586,54.9999,305.1152,0.00010237,1.341e-05,0.0,0 STARLINK-3584,1 51885U 22022AK  22262.45746735  .00001341  00000-0  10237-3 0  9995,2 51885  53.2168 287.9586 0001696  54.9999 305.1152 15.08837255 31933,6917.889,95.438,540.927,538.581,0.0
51885.0,STARLINK-3584,PAYLOAD,2022-09-19 18:55:40,15.08840697,0.0001715,53.2168,286.4717,55.3712,304.7442,0.00010015,1.306e-05,0.0,0 STARLINK-3584,1 51885U 22022AK  22262.78866556  .00001306  00000-0  10015-3 0  9990,2 51885  53.2168 286.4717 0001715  55.3712 304.7442 15.08840697 31989,6917.878000000002,95.438,540.93,538.557,0.0
51885.0,STARLINK-3584,PAYLOAD,2022-09-20 09:14:08,15.08847695,0.0001582,53.2168,283.7929,59.5187,300.5961,-0.00010866,-2.017e-05,0.0,0 STARLINK-3584,1 51885U 22022AK  22263.38482597 -.00002017  00000-0 -10866-3 0  9992,2 51885  53.2168 283.7929 0001582  59.5187 300.5961 15.08847695 32074,6917.857,95.437,540.816,538.627,0.0
51885.0,STARLINK-3584,PAYLOAD,2022-09-20 18:46:28,15.08836942,0.0001636,53.2172,282.0083,60.7113,299.4043,-1.6311e-05,-5.48e-06,0.0,0 STARLINK-3584,1 51885U 22022AK  22263.78227038 -.00000548  00000-0 -16311-4 0  9992,2 51885  53.2172 282.0083 0001636  60.7113 299.4043 15.08836942 32132,6917.89,95.438,540.887,538.623,0.0
51885.0,STARLINK-3584,PAYLOAD,2022-09-21 23:23:23,15.08847796,0.0001235,53.2182,276.6591,47.3511,312.7585,7.482e-05,9.03e-06,0.0,0 STARLINK-3584,1 51885U 22022AK  22264.97457688  .00000903  00000-0  74820-4 0  9992,2 51885  53.2182 276.6591 0001235  47.3511 312.7585 15.08847796 32313,6917.857,95.437,540.576,538.867,0.0
51885.0,STARLINK-3584,PAYLOAD,2022-09-22 07:20:19,15.088505599999998,0.0001544,53.219,275.1745,34.1641,325.9451,-5.1038e-05,-1.1e-05,0.0,0 STARLINK-3584,1 51885U 22022AK  22265.30577780 -.00001100  00000-0 -51038-4 0  9994,2 51885  53.2190 275.1745 0001544  34.1641 325.9451 15.08850560 32364,6917.848000000001,95.437,540.781,538.645,0.0
51885.0,STARLINK-3584,PAYLOAD,2022-09-23 04:00:20,15.08838158,0.0001594,53.214,271.3037,47.9307,312.1821,-2.0438e-05,-6.13e-06,0.0,0 STARLINK-3584,1 51885U 22022AK  22266.16690632 -.00000613  00000-0 -20438-4 0  9999,2 51885  53.2140 271.3037 0001594  47.9307 312.1821 15.08838158 32499,6917.886,95.438,540.854,538.648,0.0
51885.0,STARLINK-3584,PAYLOAD,2022-09-23 07:11:06,15.08836194,0.0001665999999999,53.2153,270.7105,48.9447,311.1689,8.8424e-06,-1.47e-06,0.0,0 STARLINK-3584,1 51885U 22022AK  22266.29938613 -.00000147  00000-0  88424-5 0  9998,2 51885  53.2153 270.7105 0001666  48.9447 311.1689 15.08836194 32510,6917.892,95.438,540.91,538.605,0.0
